[
    {
        "Altitude(m)": 612513.9559232675,
        "Argument of Periapsis(deg)": 0.0,
        "Eccentricity": 0.0,
        "Inclination(deg)": 60.0,
        "Latitude(deg)": -28.136041927580578,
        "Longitude(deg)": -52.08685358982844,
        "Mean Anomaly(deg)": -147.2727,
        "RAAN(deg)": 210.0,
        "Satellite Name": "Test1 937",
        "Satellite Number": 937,
        "Semi-Major Axis(m)": 6980739.136638005,
        "Time(s)": 0
    },
    {
        "Altitude(m)": 612708.3240679196,
        "Argument of Periapsis(deg)": 0.00010418945913296404,
        "Eccentricity": 0.0,
        "Inclination(deg)": 60.0,
        "Latitude(deg)": -28.647780706895553,
        "Longitude(deg)": -51.72962226820007,
        "Mean Anomaly(deg)": -146.65259385453814,
        "RAAN(deg)": 209.99957995086027,
        "Satellite Name": "Test1 937",
        "Satellite Number": 937,
        "Semi-Major Axis(m)": 6980739.136638005,
        "Time(s)": 10
    }
]